{
  "links" : {
    "next" : "https://api.nasa.gov/neo/rest/v1/feed?start_date=2008-06-16&end_date=2008-06-16&detailed=true&api_key=t0TVs3DtDT2H8Oy2Zy8m2eVrNsAVKAexjcZXUckd",
    "prev" : "https://api.nasa.gov/neo/rest/v1/feed?start_date=2008-06-14&end_date=2008-06-14&detailed=true&api_key=t0TVs3DtDT2H8Oy2Zy8m2eVrNsAVKAexjcZXUckd",
    "self" : "https://api.nasa.gov/neo/rest/v1/feed?start_date=2008-06-15&end_date=2008-06-15&detailed=true&api_key=t0TVs3DtDT2H8Oy2Zy8m2eVrNsAVKAexjcZXUckd"
  },
  "element_count" : 4,
  "near_earth_objects" : {
    "2008-06-15" : [ {
      "links" : {
        "self" : "https://api.nasa.gov/neo/rest/v1/neo/2175921?api_key=t0TVs3DtDT2H8Oy2Zy8m2eVrNsAVKAexjcZXUckd"
      },
      "neo_reference_id" : "2175921",
      "name" : "175921 (2000 DM1)",
      "nasa_jpl_url" : "http://ssd.jpl.nasa.gov/sbdb.cgi?sstr=2175921",
      "absolute_magnitude_h" : 18.3,
      "estimated_diameter" : {
        "kilometers" : {
          "estimated_diameter_min" : 0.5815070396,
          "estimated_diameter_max" : 1.30028927
        },
        "meters" : {
          "estimated_diameter_min" : 581.5070396458,
          "estimated_diameter_max" : 1300.2892700427
        },
        "miles" : {
          "estimated_diameter_min" : 0.3613316107,
          "estimated_diameter_max" : 0.807962044
        },
        "feet" : {
          "estimated_diameter_min" : 1907.8315559515,
          "estimated_diameter_max" : 4266.0410487267
        }
      },
      "is_potentially_hazardous_asteroid" : false,
      "close_approach_data" : [ {
        "close_approach_date" : "2008-06-15",
        "epoch_date_close_approach" : 1213513200000,
        "relative_velocity" : {
          "kilometers_per_second" : "13.863765129",
          "kilometers_per_hour" : "49909.5544642726",
          "miles_per_hour" : "31011.8562169809"
        },
        "miss_distance" : {
          "astronomical" : "0.4171042292",
          "lunar" : "162.2535400391",
          "kilometers" : "62397904",
          "miles" : "38772260"
        },
        "orbiting_body" : "Earth"
      } ],
      "orbital_data" : {
        "orbit_id" : "64",
        "orbit_determination_date" : "2017-04-06 09:25:53",
        "orbit_uncertainty" : "0",
        "minimum_orbit_intersection" : ".14155",
        "jupiter_tisserand_invariant" : "4.641",
        "epoch_osculation" : "2458000.5",
        "eccentricity" : ".4838586953347463",
        "semi_major_axis" : "1.368937873285859",
        "inclination" : "20.69944414111301",
        "ascending_node_longitude" : "342.7965027778834",
        "orbital_period" : "585.0244746225563",
        "perihelion_distance" : ".7065653799234412",
        "perihelion_argument" : "306.6714215116454",
        "aphelion_distance" : "2.031310366648278",
        "perihelion_time" : "2458156.936540001663",
        "mean_anomaly" : "263.7353874178801",
        "mean_motion" : ".6153588706391527",
        "equinox" : "J2000"
      }
    }, {
      "links" : {
        "self" : "https://api.nasa.gov/neo/rest/v1/neo/3402642?api_key=t0TVs3DtDT2H8Oy2Zy8m2eVrNsAVKAexjcZXUckd"
      },
      "neo_reference_id" : "3402642",
      "name" : "(2008 CE119)",
      "nasa_jpl_url" : "http://ssd.jpl.nasa.gov/sbdb.cgi?sstr=3402642",
      "absolute_magnitude_h" : 25.7,
      "estimated_diameter" : {
        "kilometers" : {
          "estimated_diameter_min" : 0.0192555078,
          "estimated_diameter_max" : 0.0430566244
        },
        "meters" : {
          "estimated_diameter_min" : 19.2555078188,
          "estimated_diameter_max" : 43.0566244241
        },
        "miles" : {
          "estimated_diameter_min" : 0.0119648141,
          "estimated_diameter_max" : 0.0267541378
        },
        "feet" : {
          "estimated_diameter_min" : 63.1742402722,
          "estimated_diameter_max" : 141.2618956756
        }
      },
      "is_potentially_hazardous_asteroid" : false,
      "close_approach_data" : [ {
        "close_approach_date" : "2008-06-15",
        "epoch_date_close_approach" : 1213513200000,
        "relative_velocity" : {
          "kilometers_per_second" : "2.7662459884",
          "kilometers_per_hour" : "9958.4855581014",
          "miles_per_hour" : "6187.8156513659"
        },
        "miss_distance" : {
          "astronomical" : "0.17733107",
          "lunar" : "68.9817886353",
          "kilometers" : "26528352",
          "miles" : "16483953"
        },
        "orbiting_body" : "Earth"
      } ],
      "orbital_data" : {
        "orbit_id" : "16",
        "orbit_determination_date" : "2017-07-31 10:27:58",
        "orbit_uncertainty" : "0",
        "minimum_orbit_intersection" : ".0483196",
        "jupiter_tisserand_invariant" : "5.244",
        "epoch_osculation" : "2458000.5",
        "eccentricity" : ".1766318721908845",
        "semi_major_axis" : "1.208906796970771",
        "inclination" : "7.724689405886892",
        "ascending_node_longitude" : "147.2825544861749",
        "orbital_period" : "485.4982355933009",
        "perihelion_distance" : ".9953753261175382",
        "perihelion_argument" : "50.19779903325218",
        "aphelion_distance" : "1.422438267824004",
        "perihelion_time" : "2457965.868913473748",
        "mean_anomaly" : "25.67916881142787",
        "mean_motion" : ".7415062993175736",
        "equinox" : "J2000"
      }
    }, {
      "links" : {
        "self" : "https://api.nasa.gov/neo/rest/v1/neo/3607411?api_key=t0TVs3DtDT2H8Oy2Zy8m2eVrNsAVKAexjcZXUckd"
      },
      "neo_reference_id" : "3607411",
      "name" : "(2012 PG6)",
      "nasa_jpl_url" : "http://ssd.jpl.nasa.gov/sbdb.cgi?sstr=3607411",
      "absolute_magnitude_h" : 20.3,
      "estimated_diameter" : {
        "kilometers" : {
          "estimated_diameter_min" : 0.2315021222,
          "estimated_diameter_max" : 0.5176544822
        },
        "meters" : {
          "estimated_diameter_min" : 231.5021222103,
          "estimated_diameter_max" : 517.6544821978
        },
        "miles" : {
          "estimated_diameter_min" : 0.1438487052,
          "estimated_diameter_max" : 0.3216554833
        },
        "feet" : {
          "estimated_diameter_min" : 759.5214226325,
          "estimated_diameter_max" : 1698.3415313737
        }
      },
      "is_potentially_hazardous_asteroid" : false,
      "close_approach_data" : [ {
        "close_approach_date" : "2008-06-15",
        "epoch_date_close_approach" : 1213513200000,
        "relative_velocity" : {
          "kilometers_per_second" : "15.1986488116",
          "kilometers_per_hour" : "54715.1357217164",
          "miles_per_hour" : "33997.857526641"
        },
        "miss_distance" : {
          "astronomical" : "0.1193551144",
          "lunar" : "46.4291381836",
          "kilometers" : "17855270",
          "miles" : "11094751"
        },
        "orbiting_body" : "Earth"
      } ],
      "orbital_data" : {
        "orbit_id" : "25",
        "orbit_determination_date" : "2017-04-06 08:49:21",
        "orbit_uncertainty" : "1",
        "minimum_orbit_intersection" : ".053324",
        "jupiter_tisserand_invariant" : "6.842",
        "epoch_osculation" : "2458000.5",
        "eccentricity" : ".6159617000841543",
        "semi_major_axis" : ".8373312053829866",
        "inclination" : "6.540488651070537",
        "ascending_node_longitude" : "312.0220453248808",
        "orbital_period" : "279.8622631815635",
        "perihelion_distance" : ".321567252581768",
        "perihelion_argument" : "169.7644635025984",
        "aphelion_distance" : "1.353095158184205",
        "perihelion_time" : "2457925.328020980103",
        "mean_anomaly" : "96.69725435474744",
        "mean_motion" : "1.286347061970432",
        "equinox" : "J2000"
      }
    }, {
      "links" : {
        "self" : "https://api.nasa.gov/neo/rest/v1/neo/3772982?api_key=t0TVs3DtDT2H8Oy2Zy8m2eVrNsAVKAexjcZXUckd"
      },
      "neo_reference_id" : "3772982",
      "name" : "(2017 FP101)",
      "nasa_jpl_url" : "http://ssd.jpl.nasa.gov/sbdb.cgi?sstr=3772982",
      "absolute_magnitude_h" : 24.821,
      "estimated_diameter" : {
        "kilometers" : {
          "estimated_diameter_min" : 0.0288638977,
          "estimated_diameter_max" : 0.0645416373
        },
        "meters" : {
          "estimated_diameter_min" : 28.8638976985,
          "estimated_diameter_max" : 64.5416373494
        },
        "miles" : {
          "estimated_diameter_min" : 0.017935189,
          "estimated_diameter_max" : 0.0401043017
        },
        "feet" : {
          "estimated_diameter_min" : 94.6978301251,
          "estimated_diameter_max" : 211.7507854815
        }
      },
      "is_potentially_hazardous_asteroid" : false,
      "close_approach_data" : [ {
        "close_approach_date" : "2008-06-15",
        "epoch_date_close_approach" : 1213513200000,
        "relative_velocity" : {
          "kilometers_per_second" : "4.2325155017",
          "kilometers_per_hour" : "15237.0558062032",
          "miles_per_hour" : "9467.7139258044"
        },
        "miss_distance" : {
          "astronomical" : "0.2381991212",
          "lunar" : "92.6594543457",
          "kilometers" : "35634080",
          "miles" : "22141992"
        },
        "orbiting_body" : "Earth"
      } ],
      "orbital_data" : {
        "orbit_id" : "9",
        "orbit_determination_date" : "2017-05-05 06:19:12",
        "orbit_uncertainty" : "6",
        "minimum_orbit_intersection" : ".03864",
        "jupiter_tisserand_invariant" : "5.690",
        "epoch_osculation" : "2458000.5",
        "eccentricity" : ".1277041003277917",
        "semi_major_axis" : "1.086417218515508",
        "inclination" : "6.61689040094888",
        "ascending_node_longitude" : "17.74718252413387",
        "orbital_period" : "413.6122444432071",
        "perihelion_distance" : ".9476772850443632",
        "perihelion_argument" : "82.37875738472366",
        "aphelion_distance" : "1.225157151986653",
        "perihelion_time" : "2458168.032315455000",
        "mean_anomaly" : "214.1831525200857",
        "mean_motion" : ".870380422331601",
        "equinox" : "J2000"
      }
    } ]
  }
}